*******************************************************************************
Ephemeris / WWW_USER Tue Mar 27 20:12:33 2018 Pasadena, USA      / Horizons    
*******************************************************************************
Target body name: Ganymede (503)                  {source: jup310}
Center body name: Solar System Barycenter (0)     {source: DE431mx}
Center-site name: BODY CENTER
*******************************************************************************
Start time      : A.D. 2000-Jan-01 00:00:00.0000 TDB
Stop  time      : A.D. 2010-Jan-01 00:00:00.0000 TDB
Step-size       : 7200 minutes
*******************************************************************************
Center geodetic : 0.00000000,0.00000000,0.0000000 {E-lon(deg),Lat(deg),Alt(km)}
Center cylindric: 0.00000000,0.00000000,0.0000000 {E-lon(deg),Dxy(km),Dz(km)}
Center radii    : (undefined)                                                  
Output units    : AU-D                                                         
Output type     : GEOMETRIC cartesian states
Output format   : 2 (position and velocity)
Reference frame : ICRF/J2000.0                                                 
Coordinate systm: Ecliptic and Mean Equinox of Reference Epoch                 
*******************************************************************************
JDTDB
   X     Y     Z
   VX    VY    VZ
*******************************************************************************
$$SOE
2454274.500000000 = A.D. 2007-Jun-23 00:00:00.0000 TDB 
  -1.264625264239632E+00 -5.149799991967551E+00  5.002097074681969E-02
   3.032143926027759E-03  3.214188221794415E-03 -3.269248942144679E-05
2454279.500000000 = A.D. 2007-Jun-28 00:00:00.0000 TDB 
  -1.230881798747340E+00 -5.168254475670231E+00  4.878486874939946E-02
   1.301290556621602E-02  1.112891827040510E-03  8.681494735655172E-06
2454284.500000000 = A.D. 2007-Jul-03 00:00:00.0000 TDB 
  -1.204607958853258E+00 -5.169186416168889E+00  4.810126678124434E-02
   7.810538425968130E-03 -7.600204125998478E-03 -3.845911890085198E-04
2454289.500000000 = A.D. 2007-Jul-08 00:00:00.0000 TDB 
  -1.159521987300302E+00 -5.168206565603841E+00  4.770803375872794E-02
   1.160890023903342E-03  1.450965897175188E-04 -1.784622084734880E-04
2454294.500000000 = A.D. 2007-Jul-13 00:00:00.0000 TDB 
  -1.118694794812029E+00 -5.185267655077273E+00  4.657321592155062E-02
   1.058044820296967E-02  4.105180619964048E-03  8.340736845421489E-05
2454299.500000000 = A.D. 2007-Jul-18 00:00:00.0000 TDB 
  -1.093847459591438E+00 -5.192181277587475E+00  4.560970788584346E-02
   1.131770604602877E-02 -6.021093341246689E-03 -2.898012343891526E-04
2454304.500000000 = A.D. 2007-Jul-23 00:00:00.0000 TDB 
  -1.054482249804884E+00 -5.186785624523247E+00  4.527386278505369E-02
   1.464208100065603E-03 -3.432897953130284E-03 -3.165077497223273E-04
2454309.500000000 = A.D. 2007-Jul-28 00:00:00.0000 TDB 
  -1.008180793206338E+00 -5.198628819693528E+00  4.436436644822975E-02
   6.967995718167034E-03  5.180224497495154E-03  7.173928023234841E-05
2454314.500000000 = A.D. 2007-Aug-02 00:00:00.0000 TDB 
  -9.806306348423357E-01 -5.211231349921789E+00  4.318307103569326E-02
   1.338933070067731E-02 -2.707730536463693E-03 -1.475287474652322E-04
2454319.500000000 = A.D. 2007-Aug-07 00:00:00.0000 TDB 
  -9.480390207717715E-01 -5.205418062146277E+00  4.274200384193332E-02
   3.839402827914987E-03 -6.197545950750938E-03 -3.984789253293725E-04
2454324.500000000 = A.D. 2007-Aug-12 00:00:00.0000 TDB 
  -8.997637576867977E-01 -5.209812747226128E+00  4.209879637131945E-02
   3.484927352895909E-03  4.020325464110836E-03 -2.211661623924382E-05
2454329.500000000 = A.D. 2007-Aug-17 00:00:00.0000 TDB 
  -8.663002279586356E-01 -5.225486935819439E+00  4.083779639565772E-02
   1.328157952282966E-02  1.205731662705520E-03 -9.495804117675554E-06
2454334.500000000 = A.D. 2007-Aug-22 00:00:00.0000 TDB 
  -8.390604790017456E-01 -5.223140776319965E+00  4.016361449670490E-02
   7.463454368394206E-03 -7.105763131922752E-03 -3.953447919177198E-04
2454339.500000000 = A.D. 2007-Aug-27 00:00:00.0000 TDB 
  -7.929582692829094E-01 -5.220221503775241E+00  3.973098640079527E-02
   1.374293785180839E-03  1.096950866415334E-03 -1.651722791527754E-04
2454344.500000000 = A.D. 2007-Sep-01 00:00:00.0000 TDB 
  -7.524350873617013E-01 -5.234987189971635E+00  3.855410712928353E-02
   1.105174820024383E-02  4.371338828631927E-03  7.443080604045865E-05
2454349.500000000 = A.D. 2007-Sep-06 00:00:00.0000 TDB 
  -7.271550893261886E-01 -5.238471244793736E+00  3.760030237604498E-02
   1.105006751019285E-02 -5.774908368768632E-03 -3.085786288116148E-04
2454354.500000000 = A.D. 2007-Sep-11 00:00:00.0000 TDB 
  -6.865528381940047E-01 -5.230711741494916E+00  3.724485279097958E-02
   1.400467652544972E-03 -2.490890957153058E-03 -3.067617585852292E-04
2454359.500000000 = A.D. 2007-Sep-16 00:00:00.0000 TDB 
  -6.402995305010875E-01 -5.240635829465989E+00  3.628369776355520E-02
   7.504179840258265E-03  5.712180758630472E-03  7.373242234907359E-05
2454364.500000000 = A.D. 2007-Sep-21 00:00:00.0000 TDB 
  -6.128445297486175E-01 -5.249959663202103E+00  3.510123555495668E-02
   1.333038822898656E-02 -2.616605204549581E-03 -1.692449724734854E-04
2454369.500000000 = A.D. 2007-Sep-26 00:00:00.0000 TDB 
  -5.790745982218516E-01 -5.241274253303482E+00  3.466008777593580E-02
   3.552681673999167E-03 -5.411708367973896E-03 -3.970549435572102E-04
2454374.500000000 = A.D. 2007-Oct-01 00:00:00.0000 TDB 
  -5.304278282237402E-01 -5.243881044825979E+00  3.396685936963701E-02
   3.921177296806880E-03  4.810403999595661E-03 -1.147138926225795E-05
2454379.500000000 = A.D. 2007-Oct-06 00:00:00.0000 TDB 
  -4.974065738439035E-01 -5.256671181081085E+00  3.268702072178217E-02
   1.348445250558954E-02  1.296808468804707E-03 -2.769474186973151E-05
2454384.500000000 = A.D. 2007-Oct-11 00:00:00.0000 TDB 
  -4.693301253517698E-01 -5.251033889581924E+00  3.202550400658967E-02
   7.079403760910106E-03 -6.569124183949454E-03 -4.041434112596130E-04
2454389.500000000 = A.D. 2007-Oct-16 00:00:00.0000 TDB 
  -4.224399170283406E-01 -5.246165954795705E+00  3.155540888089532E-02
   1.582601671328940E-03  2.047261696607715E-03 -1.511078300875442E-04
2454394.500000000 = A.D. 2007-Oct-21 00:00:00.0000 TDB 
  -3.824196087123695E-01 -5.258535556222377E+00  3.034215435444045E-02
   1.146897763751033E-02  4.620766081051381E-03  6.508254263888764E-05
2454399.500000000 = A.D. 2007-Oct-26 00:00:00.0000 TDB 
  -3.568283648781839E-01 -5.258546656003026E+00  2.940268781804470E-02
   1.072630055281250E-02 -5.494315950407052E-03 -3.258831959141631E-04
2454404.500000000 = A.D. 2007-Oct-31 00:00:00.0000 TDB 
  -3.151887357265105E-01 -5.248439063582137E+00  2.902920741017384E-02
   1.331978594630743E-03 -1.531065349105588E-03 -2.954975963031841E-04
2454409.500000000 = A.D. 2007-Nov-05 00:00:00.0000 TDB 
  -2.692131546364319E-01 -5.256367001146912E+00  2.802104745877597E-02
   8.002956069284299E-03  6.220114115542111E-03  7.533253932657341E-05
2454414.500000000 = A.D. 2007-Nov-10 00:00:00.0000 TDB 
  -2.419876786638051E-01 -5.262339048894670E+00  2.684316196896651E-02
   1.320435864018058E-02 -2.507840587408434E-03 -1.901888142944405E-04
2454419.500000000 = A.D. 2007-Nov-15 00:00:00.0000 TDB 
  -2.072040296449470E-01 -5.250800728606554E+00  2.640400650196668E-02
   3.249153204633313E-03 -4.591907754522047E-03 -3.936323719676795E-04
2454424.500000000 = A.D. 2007-Nov-20 00:00:00.0000 TDB 
  -1.584294417564267E-01 -5.251580422383065E+00  2.566406249297187E-02
   4.338330763595846E-03  5.580230930418457E-03 -8.261114120627115E-07
2454429.500000000 = A.D. 2007-Nov-25 00:00:00.0000 TDB 
  -1.260137145896792E-01 -5.261395122981127E+00  2.437164494316162E-02
   1.362052663069962E-02  1.386549259944672E-03 -4.576682695559431E-05
2454434.500000000 = A.D. 2007-Nov-30 00:00:00.0000 TDB 
  -9.723779300041303E-02 -5.252468843334084E+00  2.372601290811148E-02
   6.659021375300182E-03 -5.993063158923813E-03 -4.109390122872021E-04
2454439.500000000 = A.D. 2007-Dec-05 00:00:00.0000 TDB 
  -4.979470040195396E-02 -5.245652453368388E+00  2.322061501121652E-02
   1.784693266224690E-03  2.991908210769285E-03 -1.363170748836012E-04
2454444.500000000 = A.D. 2007-Dec-10 00:00:00.0000 TDB 
  -1.047703299471824E-02 -5.255535569889461E+00  2.197697626610892E-02
   1.182841309614183E-02  4.851979723445588E-03  5.539046975549642E-05
2454449.500000000 = A.D. 2007-Dec-15 00:00:00.0000 TDB 
   1.529837731857366E-02 -5.252046602664598E+00  2.105645665817194E-02
   1.034766871508237E-02 -5.180885012113725E-03 -3.416059596606261E-04
2454454.500000000 = A.D. 2007-Dec-20 00:00:00.0000 TDB 
   5.776769154369001E-02 -5.239617606261286E+00  2.066666061024000E-02
   1.258157984020877E-03 -5.571711739072756E-04 -2.827286921645333E-04
2454459.500000000 = A.D. 2007-Dec-25 00:00:00.0000 TDB 
   1.032331596744172E-01 -5.245481522469939E+00  1.961646848429564E-02
   8.461033362235401E-03  6.701058866077375E-03  7.650261420734822E-05
2454464.500000000 = A.D. 2007-Dec-30 00:00:00.0000 TDB 
   1.300927449673958E-01 -5.248044226598205E+00  1.844898500347352E-02
   1.301197025466895E-02 -2.381309516274804E-03 -2.102013270264193E-04
2454469.500000000 = A.D. 2008-Jan-04 00:00:00.0000 TDB 
   1.657167079137937E-01 -5.233685381180825E+00  1.801393266140263E-02
   2.929099262426137E-03 -3.742017393413170E-03 -3.882035700245842E-04
2454474.500000000 = A.D. 2008-Jan-09 00:00:00.0000 TDB 
   2.143708284538707E-01 -5.232607925712342E+00  1.723085021929924E-02
   4.734121199776494E-03  6.326024188032195E-03  9.769583678500429E-06
2454479.500000000 = A.D. 2008-Jan-14 00:00:00.0000 TDB 
   2.460179794161166E-01 -5.239369383908652E+00  1.593231697871116E-02
   1.368769121484359E-02  1.474451622003002E-03 -6.363141203439318E-05
